[{"OBJECT_NAME":"AEROCUBE 6A","OBJECT_ID":"2014-033AM","EPOCH":"2026-03-09T22:20:23.815680","MEAN_MOTION":14.96848607,"ECCENTRICITY":0.00387302,"INCLINATION":97.7128,"RA_OF_ASC_NODE":237.0691,"ARG_OF_PERICENTER":349.0559,"MEAN_ANOMALY":10.9816,"EPHEMERIS_TYPE":0,"CLASSIFICATION_TYPE":"U","NORAD_CAT_ID":40045,"ELEMENT_SET_NO":999,"REV_AT_EPOCH":63176,"BSTAR":0.00067890448,"MEAN_MOTION_DOT":7.845e-5,"MEAN_MOTION_DDOT":0},{"OBJECT_NAME":"STARLINK-6343","OBJECT_ID":"2023-099AL","EPOCH":"2026-03-09T13:02:24.797184","MEAN_MOTION":15.02535449,"ECCENTRICITY":0.0001197,"INCLINATION":43.0024,"RA_OF_ASC_NODE":236.8156,"ARG_OF_PERICENTER":263.4467,"MEAN_ANOMALY":96.6239,"EPHEMERIS_TYPE":0,"CLASSIFICATION_TYPE":"U","NORAD_CAT_ID":57362,"ELEMENT_SET_NO":999,"REV_AT_EPOCH":14624,"BSTAR":3.176e-5,"MEAN_MOTION_DOT":2.25e-6,"MEAN_MOTION_DDOT":0}]
